LEMUR-2-PETERG          
1 42841U 17042S   26068.48235713  .00023240  00000+0  81076-3 0  9993
2 42841  97.3980 253.6596 0003700 341.6938  18.4169 15.29611459473171
STARLINK-1524           
1 46047U 20055W   26068.39257527  .00008160  00000+0  29458-3 0  9990
2 46047  53.1566 115.2043 0001469 112.6811 247.4344 15.29379865309022
